{
  "type": "FeatureCollection",
  "features": [
    {
      "type": "Feature",
      "properties": {
        "norad_id": 31205,
        "name": "FENGYUN 1C DEB",
        "group": "fengyun-1c-debris",
        "lat": 31.415245987075426,
        "lon": -102.88632913155656,
        "alt_km": 773.6606050805112,
        "timestamp": "2025-12-04T15:47:54.379298+00:00",
        "meta_object_name": "FENGYUN 1C DEB",
        "meta_object_id": "1999-025BKK",
        "meta_epoch": "2025-12-04T04:58:23.193696",
        "meta_mean_motion": 14.2394587,
        "meta_eccentricity": 0.01615435,
        "meta_inclination": 99.2293,
        "meta_ra_of_asc_node": 70.941,
        "meta_arg_of_pericenter": 221.8599,
        "meta_mean_anomaly": 137.0133,
        "meta_ephemeris_type": 0,
        "meta_classification_type": "U",
        "meta_norad_cat_id": 31205,
        "meta_element_set_no": 999,
        "meta_rev_at_epoch": 97089,
        "meta_bstar": 0.00032597007,
        "meta_mean_motion_dot": 8.05e-06,
        "meta_mean_motion_ddot": 0,
        "tle_line1": "1 31205U 99025BKK 25338.20721289  .00000805  00000+0  32597-3 0  9999",
        "tle_line2": "2 31205  99.2293  70.9410 0161543 221.8599 137.0133 14.23945870970898"
      },
      "geometry": {
        "type": "Point",
        "coordinates": [
          -102.88632913155656,
          31.415245987075426
        ]
      }
    },
    {
      "type": "Feature",
      "properties": {
        "norad_id": 31206,
        "name": "FENGYUN 1C DEB",
        "group": "fengyun-1c-debris",
        "lat": 51.100493455612494,
        "lon": -124.81198211059537,
        "alt_km": 702.2382935174855,
        "timestamp": "2025-12-04T15:47:54.379309+00:00",
        "meta_object_name": "FENGYUN 1C DEB",
        "meta_object_id": "1999-025BKL",
        "meta_epoch": "2025-12-04T00:33:27.849600",
        "meta_mean_motion": 14.40433177,
        "meta_eccentricity": 0.00782687,
        "meta_inclination": 98.8439,
        "meta_ra_of_asc_node": 245.6574,
        "meta_arg_of_pericenter": 27.3845,
        "meta_mean_anomaly": 333.1435,
        "meta_ephemeris_type": 0,
        "meta_classification_type": "U",
        "meta_norad_cat_id": 31206,
        "meta_element_set_no": 999,
        "meta_rev_at_epoch": 97720,
        "meta_bstar": 0.0014581735,
        "meta_mean_motion_dot": 4.758e-05,
        "meta_mean_motion_ddot": 0,
        "tle_line1": "1 31206U 99025BKL 25338.02323900  .00004758  00000+0  14582-2 0  9992",
        "tle_line2": "2 31206  98.8439 245.6574 0078268  27.3845 333.1435 14.40433177977209"
      },
      "geometry": {
        "type": "Point",
        "coordinates": [
          -124.81198211059537,
          51.100493455612494
        ]
      }
    },
    {
      "type": "Feature",
      "properties": {
        "norad_id": 31208,
        "name": "FENGYUN 1C DEB",
        "group": "fengyun-1c-debris",
        "lat": 35.2169104118573,
        "lon": 114.81816282655208,
        "alt_km": 689.0903914327564,
        "timestamp": "2025-12-04T15:47:54.379320+00:00",
        "meta_object_name": "FENGYUN 1C DEB",
        "meta_object_id": "1999-025BKN",
        "meta_epoch": "2025-12-03T08:33:10.540800",
        "meta_mean_motion": 14.61386051,
        "meta_eccentricity": 0.00156524,
        "meta_inclination": 99.2411,
        "meta_ra_of_asc_node": 119.9644,
        "meta_arg_of_pericenter": 294.0897,
        "meta_mean_anomaly": 96.121,
        "meta_ephemeris_type": 0,
        "meta_classification_type": "U",
        "meta_norad_cat_id": 31208,
        "meta_element_set_no": 999,
        "meta_rev_at_epoch": 70342,
        "meta_bstar": 0.0046821826,
        "meta_mean_motion_dot": 0.00023221,
        "meta_mean_motion_ddot": 0,
        "tle_line1": "1 31208U 99025BKN 25337.35637200  .00023221  00000+0  46822-2 0  9998",
        "tle_line2": "2 31208  99.2411 119.9644 0015652 294.0897  96.1210 14.61386051703424"
      },
      "geometry": {
        "type": "Point",
        "coordinates": [
          114.81816282655208,
          35.2169104118573
        ]
      }
    },
    {
      "type": "Feature",
      "properties": {
        "norad_id": 31209,
        "name": "FENGYUN 1C DEB",
        "group": "fengyun-1c-debris",
        "lat": 47.7414163092302,
        "lon": 63.47792818517743,
        "alt_km": 731.355971986528,
        "timestamp": "2025-12-04T15:47:54.379330+00:00",
        "meta_object_name": "FENGYUN 1C DEB",
        "meta_object_id": "1999-025BKP",
        "meta_epoch": "2025-11-30T00:05:28.523040",
        "meta_mean_motion": 14.43135602,
        "meta_eccentricity": 0.00214689,
        "meta_inclination": 98.8844,
        "meta_ra_of_asc_node": 68.5398,
        "meta_arg_of_pericenter": 25.3584,
        "meta_mean_anomaly": 334.8653,
        "meta_ephemeris_type": 0,
        "meta_classification_type": "U",
        "meta_norad_cat_id": 31209,
        "meta_element_set_no": 999,
        "meta_rev_at_epoch": 64624,
        "meta_bstar": 0.0029439895,
        "meta_mean_motion_dot": 9.879e-05,
        "meta_mean_motion_ddot": 0,
        "tle_line1": "1 31209U 99025BKP 25334.00380235  .00009879  00000+0  29440-2 0  9991",
        "tle_line2": "2 31209  98.8844  68.5398 0021468  25.3584 334.8653 14.43135602646248"
      },
      "geometry": {
        "type": "Point",
        "coordinates": [
          63.47792818517743,
          47.7414163092302
        ]
      }
    },
    {
      "type": "Feature",
      "properties": {
        "norad_id": 31210,
        "name": "FENGYUN 1C DEB",
        "group": "fengyun-1c-debris",
        "lat": 73.83167402270078,
        "lon": -168.13048278982342,
        "alt_km": 842.2368518523735,
        "timestamp": "2025-12-04T15:47:54.379341+00:00",
        "meta_object_name": "FENGYUN 1C DEB",
        "meta_object_id": "1999-025BKQ",
        "meta_epoch": "2025-12-02T11:19:00.611904",
        "meta_mean_motion": 14.11975225,
        "meta_eccentricity": 0.0016666,
        "meta_inclination": 98.7187,
        "meta_ra_of_asc_node": 337.787,
        "meta_arg_of_pericenter": 184.133,
        "meta_mean_anomaly": 330.4832,
        "meta_ephemeris_type": 0,
        "meta_classification_type": "U",
        "meta_norad_cat_id": 31210,
        "meta_element_set_no": 999,
        "meta_rev_at_epoch": 95822,
        "meta_bstar": 0.00046215782,
        "meta_mean_motion_dot": 8.04e-06,
        "meta_mean_motion_ddot": 0,
        "tle_line1": "1 31210U 99025BKQ 25336.47153486  .00000804  00000+0  46216-3 0  9992",
        "tle_line2": "2 31210  98.7187 337.7870 0016666 184.1330 330.4832 14.11975225958225"
      },
      "geometry": {
        "type": "Point",
        "coordinates": [
          -168.13048278982342,
          73.83167402270078
        ]
      }
    },
    {
      "type": "Feature",
      "properties": {
        "norad_id": 31211,
        "name": "FENGYUN 1C DEB",
        "group": "fengyun-1c-debris",
        "lat": 18.421508890917032,
        "lon": 11.814233424499704,
        "alt_km": 827.6317310038175,
        "timestamp": "2025-12-04T15:47:54.379351+00:00",
        "meta_object_name": "FENGYUN 1C DEB",
        "meta_object_id": "1999-025BKR",
        "meta_epoch": "2025-12-02T07:54:14.922432",
        "meta_mean_motion": 14.19985775,
        "meta_eccentricity": 0.00511166,
        "meta_inclination": 98.6742,
        "meta_ra_of_asc_node": 12.4462,
        "meta_arg_of_pericenter": 118.9096,
        "meta_mean_anomaly": 241.7222,
        "meta_ephemeris_type": 0,
        "meta_classification_type": "U",
        "meta_norad_cat_id": 31211,
        "meta_element_set_no": 999,
        "meta_rev_at_epoch": 63145,
        "meta_bstar": 0.001279389,
        "meta_mean_motion_dot": 2.714e-05,
        "meta_mean_motion_ddot": 0,
        "tle_line1": "1 31211U 99025BKR 25336.32933938  .00002714  00000+0  12794-2 0  9990",
        "tle_line2": "2 31211  98.6742  12.4462 0051116 118.9096 241.7222 14.19985775631458"
      },
      "geometry": {
        "type": "Point",
        "coordinates": [
          11.814233424499704,
          18.421508890917032
        ]
      }
    },
    {
      "type": "Feature",
      "properties": {
        "norad_id": 31212,
        "name": "FENGYUN 1C DEB",
        "group": "fengyun-1c-debris",
        "lat": -19.510369187632392,
        "lon": -173.40826406340037,
        "alt_km": 800.4462196981558,
        "timestamp": "2025-12-04T15:47:54.379362+00:00",
        "meta_object_name": "FENGYUN 1C DEB",
        "meta_object_id": "1999-025BKS",
        "meta_epoch": "2025-11-25T01:25:48.692640",
        "meta_mean_motion": 14.12981607,
        "meta_eccentricity": 0.00745379,
        "meta_inclination": 99.223,
        "meta_ra_of_asc_node": 0.0078,
        "meta_arg_of_pericenter": 220.8092,
        "meta_mean_anomaly": 138.7482,
        "meta_ephemeris_type": 0,
        "meta_classification_type": "U",
        "meta_norad_cat_id": 31212,
        "meta_element_set_no": 999,
        "meta_rev_at_epoch": 95409,
        "meta_bstar": 0.0015990818,
        "meta_mean_motion_dot": 3.014e-05,
        "meta_mean_motion_ddot": 0,
        "tle_line1": "1 31212U 99025BKS 25329.05959135  .00003014  00000+0  15991-2 0  9996",
        "tle_line2": "2 31212  99.2230   0.0078 0074537 220.8092 138.7482 14.12981607954099"
      },
      "geometry": {
        "type": "Point",
        "coordinates": [
          -173.40826406340037,
          -19.510369187632392
        ]
      }
    }
  ]
}